[{"OBJECT_NAME":"SL-8 R/B","OBJECT_ID":"1988-053B","EPOCH":"2026-04-09T08:01:29.587872","MEAN_MOTION":14.38936518,"ECCENTRICITY":0.00212109,"INCLINATION":74.0476,"RA_OF_ASC_NODE":55.9742,"ARG_OF_PERICENTER":230.9666,"MEAN_ANOMALY":281.535,"EPHEMERIS_TYPE":0,"CLASSIFICATION_TYPE":"U","NORAD_CAT_ID":19257,"ELEMENT_SET_NO":999,"REV_AT_EPOCH":98100,"BSTAR":8.2055029e-5,"MEAN_MOTION_DOT":2.27e-6,"MEAN_MOTION_DDOT":0},{"OBJECT_NAME":"COSMOS 1975","OBJECT_ID":"1988-093A","EPOCH":"2026-04-08T23:22:59.994336","MEAN_MOTION":15.28503332,"ECCENTRICITY":0.00132001,"INCLINATION":82.517,"RA_OF_ASC_NODE":87.2662,"ARG_OF_PERICENTER":68.9039,"MEAN_ANOMALY":291.3611,"EPHEMERIS_TYPE":0,"CLASSIFICATION_TYPE":"U","NORAD_CAT_ID":19573,"ELEMENT_SET_NO":999,"REV_AT_EPOCH":2403,"BSTAR":0.00017092044,"MEAN_MOTION_DOT":4.785e-5,"MEAN_MOTION_DDOT":0},{"OBJECT_NAME":"SL-14 R/B","OBJECT_ID":"1988-093B","EPOCH":"2026-04-09T06:11:32.426016","MEAN_MOTION":14.85694332,"ECCENTRICITY":0.00192828,"INCLINATION":82.5345,"RA_OF_ASC_NODE":13.3553,"ARG_OF_PERICENTER":299.3765,"MEAN_ANOMALY":219.8162,"EPHEMERIS_TYPE":0,"CLASSIFICATION_TYPE":"U","NORAD_CAT_ID":19574,"ELEMENT_SET_NO":999,"REV_AT_EPOCH":555,"BSTAR":5.2886984e-5,"MEAN_MOTION_DOT":4.84e-6,"MEAN_MOTION_DDOT":0},{"OBJECT_NAME":"SL-16 R/B","OBJECT_ID":"1988-102B","EPOCH":"2026-04-09T06:40:09.094656","MEAN_MOTION":14.16158566,"ECCENTRICITY":0.00156927,"INCLINATION":70.9977,"RA_OF_ASC_NODE":87.1334,"ARG_OF_PERICENTER":317.3077,"MEAN_ANOMALY":42.6826,"EPHEMERIS_TYPE":0,"CLASSIFICATION_TYPE":"U","NORAD_CAT_ID":19650,"ELEMENT_SET_NO":999,"REV_AT_EPOCH":93122,"BSTAR":0.00015398814,"MEAN_MOTION_DOT":2.57e-6,"MEAN_MOTION_DDOT":0},{"OBJECT_NAME":"INTERCOSMOS 24","OBJECT_ID":"1989-080A","EPOCH":"2026-04-08T23:41:46.009248","MEAN_MOTION":12.59593468,"ECCENTRICITY":0.1187112,"INCLINATION":82.6016,"RA_OF_ASC_NODE":84.6687,"ARG_OF_PERICENTER":222.4432,"MEAN_ANOMALY":127.8718,"EPHEMERIS_TYPE":0,"CLASSIFICATION_TYPE":"U","NORAD_CAT_ID":20261,"ELEMENT_SET_NO":999,"REV_AT_EPOCH":67061,"BSTAR":6.7402812e-5,"MEAN_MOTION_DOT":2.36e-6,"MEAN_MOTION_DDOT":0},{"OBJECT_NAME":"SL-14 R/B","OBJECT_ID":"1989-080C","EPOCH":"2026-04-09T04:51:07.456896","MEAN_MOTION":12.50521995,"ECCENTRICITY":0.12309394,"INCLINATION":82.5937,"RA_OF_ASC_NODE":153.6068,"ARG_OF_PERICENTER":115.0425,"MEAN_ANOMALY":258.3449,"EPHEMERIS_TYPE":0,"CLASSIFICATION_TYPE":"U","NORAD_CAT_ID":20262,"ELEMENT_SET_NO":999,"REV_AT_EPOCH":66396,"BSTAR":8.0733213e-5,"MEAN_MOTION_DOT":3.0e-6,"MEAN_MOTION_DDOT":0},{"OBJECT_NAME":"DELTA 1 R/B","OBJECT_ID":"1989-089B","EPOCH":"2026-04-09T04:14:31.540416","MEAN_MOTION":14.50689664,"ECCENTRICITY":0.00697847,"INCLINATION":97.0681,"RA_OF_ASC_NODE":301.7606,"ARG_OF_PERICENTER":27.3576,"MEAN_ANOMALY":333.1269,"EPHEMERIS_TYPE":0,"CLASSIFICATION_TYPE":"U","NORAD_CAT_ID":20323,"ELEMENT_SET_NO":999,"REV_AT_EPOCH":90015,"BSTAR":8.4507517e-5,"MEAN_MOTION_DOT":3.07e-6,"MEAN_MOTION_DDOT":0},{"OBJECT_NAME":"ARIANE 40 R/B","OBJECT_ID":"1990-005H","EPOCH":"2026-04-09T04:20:32.137728","MEAN_MOTION":14.39892216,"ECCENTRICITY":0.00113636,"INCLINATION":98.3022,"RA_OF_ASC_NODE":158.9242,"ARG_OF_PERICENTER":111.6575,"MEAN_ANOMALY":248.5825,"EPHEMERIS_TYPE":0,"CLASSIFICATION_TYPE":"U","NORAD_CAT_ID":20443,"ELEMENT_SET_NO":999,"REV_AT_EPOCH":89719,"BSTAR":9.7642079e-5,"MEAN_MOTION_DOT":2.65e-6,"MEAN_MOTION_DDOT":0},{"OBJECT_NAME":"DELTA 2 R/B(1)","OBJECT_ID":"1990-008B","EPOCH":"2026-04-09T00:05:41.525376","MEAN_MOTION":15.60285686,"ECCENTRICITY":0.00761444,"INCLINATION":35.604,"RA_OF_ASC_NODE":335.2939,"ARG_OF_PERICENTER":184.3872,"MEAN_ANOMALY":175.6203,"EPHEMERIS_TYPE":0,"CLASSIFICATION_TYPE":"U","NORAD_CAT_ID":20453,"ELEMENT_SET_NO":999,"REV_AT_EPOCH":93086,"BSTAR":0.0005782908,"MEAN_MOTION_DOT":0.00056721,"MEAN_MOTION_DDOT":0},{"OBJECT_NAME":"COSMOS 2058","OBJECT_ID":"1990-010A","EPOCH":"2026-04-09T05:36:41.993568","MEAN_MOTION":15.11629321,"ECCENTRICITY":0.00085912,"INCLINATION":82.4724,"RA_OF_ASC_NODE":17.3346,"ARG_OF_PERICENTER":221.4605,"MEAN_ANOMALY":138.5974,"EPHEMERIS_TYPE":0,"CLASSIFICATION_TYPE":"U","NORAD_CAT_ID":20465,"ELEMENT_SET_NO":999,"REV_AT_EPOCH":94685,"BSTAR":0.00020547185,"MEAN_MOTION_DOT":3.521e-5,"MEAN_MOTION_DDOT":0},{"OBJECT_NAME":"SL-14 R/B","OBJECT_ID":"1990-010B","EPOCH":"2026-04-09T07:22:38.750880","MEAN_MOTION":14.83601588,"ECCENTRICITY":0.00194184,"INCLINATION":82.5016,"RA_OF_ASC_NODE":238.6225,"ARG_OF_PERICENTER":194.8889,"MEAN_ANOMALY":165.1757,"EPHEMERIS_TYPE":0,"CLASSIFICATION_TYPE":"U","NORAD_CAT_ID":20466,"ELEMENT_SET_NO":999,"REV_AT_EPOCH":93302,"BSTAR":6.2881094e-5,"MEAN_MOTION_DOT":5.44e-6,"MEAN_MOTION_DDOT":0},{"OBJECT_NAME":"SL-14 R/B","OBJECT_ID":"1990-018B","EPOCH":"2026-04-09T06:53:20.919552","MEAN_MOTION":14.82176749,"ECCENTRICITY":0.00160005,"INCLINATION":82.5244,"RA_OF_ASC_NODE":194.4991,"ARG_OF_PERICENTER":356.5926,"MEAN_ANOMALY":3.5176,"EPHEMERIS_TYPE":0,"CLASSIFICATION_TYPE":"U","NORAD_CAT_ID":20511,"ELEMENT_SET_NO":999,"REV_AT_EPOCH":92711,"BSTAR":4.9285882e-5,"MEAN_MOTION_DOT":4.17e-6,"MEAN_MOTION_DDOT":0},{"OBJECT_NAME":"HST","OBJECT_ID":"1990-037B","EPOCH":"2026-04-09T06:41:50.498016","MEAN_MOTION":15.2999637,"ECCENTRICITY":0.00023719,"INCLINATION":28.4725,"RA_OF_ASC_NODE":191.2519,"ARG_OF_PERICENTER":104.236,"MEAN_ANOMALY":255.85,"EPHEMERIS_TYPE":0,"CLASSIFICATION_TYPE":"U","NORAD_CAT_ID":20580,"ELEMENT_SET_NO":999,"REV_AT_EPOCH":77800,"BSTAR":0.00021914088,"MEAN_MOTION_DOT":6.781e-5,"MEAN_MOTION_DDOT":0},{"OBJECT_NAME":"SL-16 R/B","OBJECT_ID":"1990-046B","EPOCH":"2026-04-09T07:21:39.227328","MEAN_MOTION":14.15019102,"ECCENTRICITY":0.0016615,"INCLINATION":70.9994,"RA_OF_ASC_NODE":233.6075,"ARG_OF_PERICENTER":259.9758,"MEAN_ANOMALY":99.949,"EPHEMERIS_TYPE":0,"CLASSIFICATION_TYPE":"U","NORAD_CAT_ID":20625,"ELEMENT_SET_NO":999,"REV_AT_EPOCH":85272,"BSTAR":-4.6428014e-5,"MEAN_MOTION_DOT":-1.38e-6,"MEAN_MOTION_DDOT":0},{"OBJECT_NAME":"COSMOS 2084","OBJECT_ID":"1990-055A","EPOCH":"2026-04-09T08:05:34.108512","MEAN_MOTION":15.05845724,"ECCENTRICITY":0.00121277,"INCLINATION":62.79,"RA_OF_ASC_NODE":231.0322,"ARG_OF_PERICENTER":201.071,"MEAN_ANOMALY":158.9893,"EPHEMERIS_TYPE":0,"CLASSIFICATION_TYPE":"U","NORAD_CAT_ID":20663,"ELEMENT_SET_NO":999,"REV_AT_EPOCH":94093,"BSTAR":0.0001929081,"MEAN_MOTION_DOT":2.616e-5,"MEAN_MOTION_DDOT":0},{"OBJECT_NAME":"SL-6 R/B(2)","OBJECT_ID":"1990-055D","EPOCH":"2026-04-09T05:29:49.032672","MEAN_MOTION":15.03745228,"ECCENTRICITY":0.00297599,"INCLINATION":62.7812,"RA_OF_ASC_NODE":149.9855,"ARG_OF_PERICENTER":353.6745,"MEAN_ANOMALY":6.3974,"EPHEMERIS_TYPE":0,"CLASSIFICATION_TYPE":"U","NORAD_CAT_ID":20666,"ELEMENT_SET_NO":999,"REV_AT_EPOCH":94278,"BSTAR":0.00012541451,"MEAN_MOTION_DOT":1.541e-5,"MEAN_MOTION_DDOT":0},{"OBJECT_NAME":"SL-8 R/B","OBJECT_ID":"1990-078B","EPOCH":"2026-04-09T06:35:49.592256","MEAN_MOTION":14.89953483,"ECCENTRICITY":0.03569556,"INCLINATION":82.9045,"RA_OF_ASC_NODE":223.7823,"ARG_OF_PERICENTER":270.7289,"MEAN_ANOMALY":85.3052,"EPHEMERIS_TYPE":0,"CLASSIFICATION_TYPE":"U","NORAD_CAT_ID":20775,"ELEMENT_SET_NO":999,"REV_AT_EPOCH":81385,"BSTAR":0.00031737178,"MEAN_MOTION_DOT":0.00010731,"MEAN_MOTION_DDOT":0}]
