SL-8 R/B                
1 19257U 88053B   26099.33437023  .00000227  00000+0  82055-4 0  9993
2 19257  74.0476  55.9742 0021210 230.9666 281.5350 14.38936518981004
COSMOS 1975             
1 19573U 88093A   26098.97430549  .00004785  00000+0  17092-3 0  9994
2 19573  82.5170  87.2662 0013200  68.9039 291.3611 15.28503332 24036
SL-14 R/B               
1 19574U 88093B   26099.25801419  .00000484  00000+0  52887-4 0  9999
2 19574  82.5345  13.3553 0019282 299.3765 219.8162 14.85694332  5557
SL-16 R/B               
1 19650U 88102B   26099.27788304  .00000257  00000+0  15399-3 0  9998
2 19650  70.9977  87.1334 0015692 317.3077  42.6826 14.16158566931227
INTERCOSMOS 24          
1 20261U 89080A   26098.98733807  .00000236  00000+0  67403-4 0  9990
2 20261  82.6016  84.6687 1187112 222.4432 127.8718 12.59593468670611
SL-14 R/B               
1 20262U 89080C   26099.20216964  .00000300  00000+0  80733-4 0  9990
2 20262  82.5937 153.6068 1230939 115.0425 258.3449 12.50521995663966
DELTA 1 R/B             
1 20323U 89089B   26099.17675394  .00000307  00000+0  84508-4 0  9990
2 20323  97.0681 301.7606 0069784  27.3576 333.1269 14.50689664900151
ARIANE 40 R/B           
1 20443U 90005H   26099.18092752  .00000265  00000+0  97642-4 0  9991
2 20443  98.3022 158.9242 0011363 111.6575 248.5825 14.39892216897193
DELTA 2 R/B(1)          
1 20453U 90008B   26099.00395284  .00056721  00000+0  57829-3 0  9992
2 20453  35.6040 335.2939 0076144 184.3872 175.6203 15.60285686930860
COSMOS 2058             
1 20465U 90010A   26099.23381937  .00003521  00000+0  20547-3 0  9990
2 20465  82.4724  17.3346 0008591 221.4605 138.5974 15.11629321946853
SL-14 R/B               
1 20466U 90010B   26099.30739295  .00000544  00000+0  62881-4 0  9993
2 20466  82.5016 238.6225 0019418 194.8889 165.1757 14.83601588933023
SL-14 R/B               
1 20511U 90018B   26099.28704768  .00000417  00000+0  49286-4 0  9999
2 20511  82.5244 194.4991 0016000 356.5926   3.5176 14.82176749927117
HST                     
1 20580U 90037B   26099.27905669  .00006781  00000+0  21914-3 0  9995
2 20580  28.4725 191.2519 0002371 104.2360 255.8500 15.29996370778000
SL-16 R/B               
1 20625U 90046B   26099.30670402 -.00000138  00000+0 -46428-4 0  9993
2 20625  70.9994 233.6075 0016615 259.9758  99.9490 14.15019102852723
COSMOS 2084             
1 20663U 90055A   26099.33720033  .00002616  00000+0  19291-3 0  9992
2 20663  62.7900 231.0322 0012127 201.0710 158.9893 15.05845724940939
SL-6 R/B(2)             
1 20666U 90055D   26099.22903973  .00001541  00000+0  12541-3 0  9996
2 20666  62.7812 149.9855 0029759 353.6745   6.3974 15.03745228942780
SL-8 R/B                
1 20775U 90078B   26099.27487954  .00010731  00000+0  31737-3 0  9992
2 20775  82.9045 223.7823 0356955 270.7289  85.3052 14.89953483813858
